{"type": "FeatureCollection", "features": [ {"type": "Feature", "properties": {"norad_id": 45344, "name": "BEIDOU-3 G2 (C60)", "group": "gnss", "lat": -0.6222956641156371, "lon": 29.114432675264126, "alt_km": 35781.174039339734, "timestamp": "2025-12-15T14:57:58.061092+00:00", "meta": {"OBJECT_NAME": "BEIDOU-3 G2 (C60)", "OBJECT_ID": "2020-017A", "EPOCH": "2025-12-14T22:21:32.324832", "MEAN_MOTION": 1.00273108, "ECCENTRICITY": 0.00044173, "INCLINATION": 2.5013, "RA_OF_ASC_NODE": 43.9082, "ARG_OF_PERICENTER": 269.8635, "MEAN_ANOMALY": 185.4973, "EPHEMERIS_TYPE": 0, "CLASSIFICATION_TYPE": "U", "NORAD_CAT_ID": 45344, "ELEMENT_SET_NO": 999, "REV_AT_EPOCH": 2141, "BSTAR": 0, "MEAN_MOTION_DOT": -1.22e-06, "MEAN_MOTION_DDOT": 0}, "tle": {"line1": "1 45344U 20017A   25348.93162413 -.00000122  00000+0  00000+0 0  9995", "line2": "2 45344   2.5013  43.9082 0004417 269.8635 185.4973  1.00273108 21411"}}, "geometry": {"type": "Point", "coordinates": [29.114432675264126, -0.6222956641156371]}}, {"type": "Feature", "properties": {"norad_id": 45358, "name": "COSMOS 2545 (760)", "group": "gnss", "lat": -64.3608648551205, "lon": -136.50747725149455, "alt_km": 19107.846481613982, "timestamp": "2025-12-15T14:57:58.061104+00:00", "meta": {"OBJECT_NAME": "COSMOS 2545 (760)", "OBJECT_ID": "2020-018A", "EPOCH": "2025-12-10T13:58:04.872576", "MEAN_MOTION": 2.13102273, "ECCENTRICITY": 0.00118432, "INCLINATION": 64.471, "RA_OF_ASC_NODE": 319.0455, "ARG_OF_PERICENTER": 248.8319, "MEAN_ANOMALY": 111.0396, "EPHEMERIS_TYPE": 0, "CLASSIFICATION_TYPE": "U", "NORAD_CAT_ID": 45358, "ELEMENT_SET_NO": 999, "REV_AT_EPOCH": 4464, "BSTAR": 0, "MEAN_MOTION_DOT": -5.2e-07, "MEAN_MOTION_DDOT": 0}, "tle": {"line1": "1 45358U 20018A   25344.58200084 -.00000052  00000+0  00000+0 0  9997", "line2": "2 45358  64.4710 319.0455 0011843 248.8319 111.0396  2.13102273 44648"}}, "geometry": {"type": "Point", "coordinates": [-136.50747725149455, -64.3608648551205]}}, {"type": "Feature", "properties": {"norad_id": 45807, "name": "BEIDOU-3 G3 (C61)", "group": "gnss", "lat": -0.21660560916953928, "lon": 59.62963638302501, "alt_km": 35768.51366513325, "timestamp": "2025-12-15T14:57:58.061117+00:00", "meta": {"OBJECT_NAME": "BEIDOU-3 G3 (C61)", "OBJECT_ID": "2020-040A", "EPOCH": "2025-12-08T17:33:17.532288", "MEAN_MOTION": 1.00275813, "ECCENTRICITY": 0.00060306, "INCLINATION": 1.9816, "RA_OF_ASC_NODE": 66.5886, "ARG_OF_PERICENTER": 306.262, "MEAN_ANOMALY": 78.7159, "EPHEMERIS_TYPE": 0, "CLASSIFICATION_TYPE": "U", "NORAD_CAT_ID": 45807, "ELEMENT_SET_NO": 999, "REV_AT_EPOCH": 2016, "BSTAR": 0, "MEAN_MOTION_DOT": -3.52e-06, "MEAN_MOTION_DDOT": 0}, "tle": {"line1": "1 45807U 20040A   25342.73145292 -.00000352  00000+0  00000+0 0  9998", "line2": "2 45807   1.9816  66.5886 0006030 306.2620  78.7159  1.00275813 20161"}}, "geometry": {"type": "Point", "coordinates": [59.62963638302501, -0.21660560916953928]}}, {"type": "Feature", "properties": {"norad_id": 45854, "name": "GPS BIII-3  (PRN 23)", "group": "gnss", "lat": -56.45831135225015, "lon": -58.785584445385744, "alt_km": 20116.22083894165, "timestamp": "2025-12-15T14:57:58.061127+00:00", "meta": {"OBJECT_NAME": "GPS BIII-3  (PRN 23)", "OBJECT_ID": "2020-041A", "EPOCH": "2025-12-14T06:05:38.632704", "MEAN_MOTION": 2.00561996, "ECCENTRICITY": 0.00605369, "INCLINATION": 56.5481, "RA_OF_ASC_NODE": 36.1263, "ARG_OF_PERICENTER": 203.4842, "MEAN_ANOMALY": 154.2741, "EPHEMERIS_TYPE": 0, "CLASSIFICATION_TYPE": "U", "NORAD_CAT_ID": 45854, "ELEMENT_SET_NO": 999, "REV_AT_EPOCH": 4032, "BSTAR": 0, "MEAN_MOTION_DOT": -9.4e-07, "MEAN_MOTION_DDOT": 0}, "tle": {"line1": "1 45854U 20041A   25348.25391936 -.00000094  00000+0  00000+0 0  9995", "line2": "2 45854  56.5481  36.1263 0060536 203.4842 154.2741  2.00561996 40322"}}, "geometry": {"type": "Point", "coordinates": [-58.785584445385744, -56.45831135225015]}}, {"type": "Feature", "properties": {"norad_id": 46114, "name": "GALAXY 30 (WAAS/PRN 135)", "group": "gnss", "lat": -0.011067961738628547, "lon": -176.01248864781496, "alt_km": 35784.21752522398, "timestamp": "2025-12-15T14:57:58.061138+00:00", "meta": {"OBJECT_NAME": "GALAXY 30 (WAAS/PRN 135)", "OBJECT_ID": "2020-056C", "EPOCH": "2025-12-14T16:14:52.443168", "MEAN_MOTION": 1.00271715, "ECCENTRICITY": 0.00021307, "INCLINATION": 0.0181, "RA_OF_ASC_NODE": 355.3137, "ARG_OF_PERICENTER": 267.0636, "MEAN_ANOMALY": 299.9386, "EPHEMERIS_TYPE": 0, "CLASSIFICATION_TYPE": "U", "NORAD_CAT_ID": 46114, "ELEMENT_SET_NO": 999, "REV_AT_EPOCH": 1944, "BSTAR": 0, "MEAN_MOTION_DOT": 5.6e-07, "MEAN_MOTION_DDOT": 0}, "tle": {"line1": "1 46114U 20056C   25348.67699587  .00000056  00000+0  00000+0 0  9997", "line2": "2 46114   0.0181 355.3137 0002130 267.0636 299.9386  1.00271715 19449"}}, "geometry": {"type": "Point", "coordinates": [-176.01248864781496, -0.011067961738628547]}}, {"type": "Feature", "properties": {"norad_id": 46805, "name": "COSMOS 2547 (705K)", "group": "gnss", "lat": 48.986945687194954, "lon": -14.520927459934791, "alt_km": 19128.722051749588, "timestamp": "2025-12-15T14:57:58.061148+00:00", "meta": {"OBJECT_NAME": "COSMOS 2547 (705K)", "OBJECT_ID": "2020-075A", "EPOCH": "2025-12-13T02:47:35.788416", "MEAN_MOTION": 2.13100044, "ECCENTRICITY": 0.00062786, "INCLINATION": 64.5959, "RA_OF_ASC_NODE": 198.6839, "ARG_OF_PERICENTER": 228.7725, "MEAN_ANOMALY": 131.2461, "EPHEMERIS_TYPE": 0, "CLASSIFICATION_TYPE": "U", "NORAD_CAT_ID": 46805, "ELEMENT_SET_NO": 999, "REV_AT_EPOCH": 3994, "BSTAR": 0, "MEAN_MOTION_DOT": 7.7e-07, "MEAN_MOTION_DDOT": 0}, "tle": {"line1": "1 46805U 20075A   25347.11638644  .00000077  00000+0  00000+0 0  9993", "line2": "2 46805  64.5959 198.6839 0006278 228.7725 131.2461  2.13100044 39941"}}, "geometry": {"type": "Point", "coordinates": [-14.520927459934791, 48.986945687194954]}}, {"type": "Feature", "properties": {"norad_id": 46826, "name": "GPS BIII-4  (PRN 14)", "group": "gnss", "lat": -43.41635537164649, "lon": 81.63276209772751, "alt_km": 20045.016090233785, "timestamp": "2025-12-15T14:57:58.061158+00:00", "meta": {"OBJECT_NAME": "GPS BIII-4  (PRN 14)", "OBJECT_ID": "2020-078A", "EPOCH": "2025-12-14T12:30:57.028896", "MEAN_MOTION": 2.00566857, "ECCENTRICITY": 0.00647079, "INCLINATION": 54.0147, "RA_OF_ASC_NODE": 218.2686, "ARG_OF_PERICENTER": 203.3807, "MEAN_ANOMALY": 318.6031, "EPHEMERIS_TYPE": 0, "CLASSIFICATION_TYPE": "U", "NORAD_CAT_ID": 46826, "ELEMENT_SET_NO": 999, "REV_AT_EPOCH": 3780, "BSTAR": 0, "MEAN_MOTION_DOT": 4.8e-07, "MEAN_MOTION_DDOT": 0}, "tle": {"line1": "1 46826U 20078A   25348.52149339  .00000048  00000+0  00000+0 0  9991", "line2": "2 46826  54.0147 218.2686 0064707 203.3807 318.6031  2.00566857 37808"}}, "geometry": {"type": "Point", "coordinates": [81.63276209772751, -43.41635537164649]}}, {"type": "Feature", "properties": {"norad_id": 48859, "name": "GPS BIII-5  (PRN 11)", "group": "gnss", "lat": 47.00735238313842, "lon": 27.941585204055052, "alt_km": 20242.203674687968, "timestamp": "2025-12-15T14:57:58.061168+00:00", "meta": {"OBJECT_NAME": "GPS BIII-5  (PRN 11)", "OBJECT_ID": "2021-054A", "EPOCH": "2025-12-08T04:14:32.423424", "MEAN_MOTION": 2.00553627, "ECCENTRICITY": 0.0024678, "INCLINATION": 55.2581, "RA_OF_ASC_NODE": 340.1367, "ARG_OF_PERICENTER": 233.3994, "MEAN_ANOMALY": 212.8593, "EPHEMERIS_TYPE": 0, "CLASSIFICATION_TYPE": "U", "NORAD_CAT_ID": 48859, "ELEMENT_SET_NO": 999, "REV_AT_EPOCH": 3292, "BSTAR": 0, "MEAN_MOTION_DOT": -8.6e-07, "MEAN_MOTION_DDOT": 0}, "tle": {"line1": "1 48859U 21054A   25342.17676416 -.00000086  00000+0  00000+0 0  9993", "line2": "2 48859  55.2581 340.1367 0024678 233.3994 212.8593  2.00553627 32922"}}, "geometry": {"type": "Point", "coordinates": [27.941585204055052, 47.00735238313842]}}, {"type": "Feature", "properties": {"norad_id": 49336, "name": "QZS-1R (QZSS/PRN 196)", "group": "gnss", "lat": 5.985151276593031, "lon": 90.25789605574445, "alt_km": 36028.365312779744, "timestamp": "2025-12-15T14:57:58.061178+00:00", "meta": {"OBJECT_NAME": "QZS-1R (QZSS/PRN 196)", "OBJECT_ID": "2021-096A", "EPOCH": "2025-12-14T14:06:12.265344", "MEAN_MOTION": 1.00257214, "ECCENTRICITY": 0.07556976, "INCLINATION": 37.0816, "RA_OF_ASC_NODE": 82.3315, "ARG_OF_PERICENTER": 271.3662, "MEAN_ANOMALY": 76.0266, "EPHEMERIS_TYPE": 0, "CLASSIFICATION_TYPE": "U", "NORAD_CAT_ID": 49336, "ELEMENT_SET_NO": 999, "REV_AT_EPOCH": 1515, "BSTAR": 0, "MEAN_MOTION_DOT": -2.79e-06, "MEAN_MOTION_DDOT": 0}, "tle": {"line1": "1 49336U 21096A   25348.58764196 -.00000279  00000+0  00000+0 0  9998", "line2": "2 49336  37.0816  82.3315 0755697 271.3662  76.0266  1.00257214 15151"}}, "geometry": {"type": "Point", "coordinates": [90.25789605574445, 5.985151276593031]}}, {"type": "Feature", "properties": {"norad_id": 49809, "name": "GSAT0223 (GALILEO 27)", "group": "gnss", "lat": 30.478618413016086, "lon": 144.34168797338313, "alt_km": 23222.74594419374, "timestamp": "2025-12-15T14:57:58.061189+00:00", "meta": {"OBJECT_NAME": "GSAT0223 (GALILEO 27)", "OBJECT_ID": "2021-116A", "EPOCH": "2025-12-10T02:39:25.687008", "MEAN_MOTION": 1.70475768, "ECCENTRICITY": 0.000463, "INCLINATION": 57.2198, "RA_OF_ASC_NODE": 346.7831, "ARG_OF_PERICENTER": 251.6037, "MEAN_ANOMALY": 107.9349, "EPHEMERIS_TYPE": 0, "CLASSIFICATION_TYPE": "U", "NORAD_CAT_ID": 49809, "ELEMENT_SET_NO": 999, "REV_AT_EPOCH": 2495, "BSTAR": 0, "MEAN_MOTION_DOT": -8.7e-07, "MEAN_MOTION_DDOT": 0}, "tle": {"line1": "1 49809U 21116A   25344.11071397 -.00000087  00000+0  00000+0 0  9992", "line2": "2 49809  57.2198 346.7831 0004630 251.6037 107.9349  1.70475768 24951"}}, "geometry": {"type": "Point", "coordinates": [144.34168797338313, 30.478618413016086]}}]}